{
  "type": "FeatureCollection",
  "features": [
    {
      "type": "Feature",
      "properties": {
        "norad_id": 34468,
        "name": "COSMOS 2251 DEB",
        "group": "cosmos-2251-debris",
        "lat": 24.997301039639677,
        "lon": 101.37021574713906,
        "alt_km": 779.1593330461155,
        "timestamp": "2025-12-25T07:00:34.442661+00:00",
        "meta_object_name": "COSMOS 2251 DEB",
        "meta_object_id": "1993-036TM",
        "meta_epoch": "2025-12-24T06:00:36.727776",
        "meta_mean_motion": 14.47654607,
        "meta_eccentricity": 0.00762669,
        "meta_inclination": 74.013,
        "meta_ra_of_asc_node": 95.6394,
        "meta_arg_of_pericenter": 238.2412,
        "meta_mean_anomaly": 121.1301,
        "meta_ephemeris_type": 0,
        "meta_classification_type": "U",
        "meta_norad_cat_id": 34468,
        "meta_element_set_no": 999,
        "meta_rev_at_epoch": 88628,
        "meta_bstar": 0.00035003014,
        "meta_mean_motion_dot": 1.309e-05,
        "meta_mean_motion_ddot": 0,
        "tle_line1": "1 34468U 93036TM  25358.25042509  .00001309  00000+0  35003-3 0  9992",
        "tle_line2": "2 34468  74.0130  95.6394 0076266 238.2412 121.1301 14.47654607886282"
      },
      "geometry": {
        "type": "Point",
        "coordinates": [
          101.37021574713906,
          24.997301039639677
        ]
      }
    },
    {
      "type": "Feature",
      "properties": {
        "norad_id": 34472,
        "name": "COSMOS 2251 DEB",
        "group": "cosmos-2251-debris",
        "lat": 22.160126005501525,
        "lon": -109.17200484674596,
        "alt_km": 834.4107502855913,
        "timestamp": "2025-12-25T07:00:34.442672+00:00",
        "meta_object_name": "COSMOS 2251 DEB",
        "meta_object_id": "1993-036TR",
        "meta_epoch": "2025-12-24T21:27:53.668224",
        "meta_mean_motion": 13.7035234,
        "meta_eccentricity": 0.03276712,
        "meta_inclination": 74.0848,
        "meta_ra_of_asc_node": 78.1549,
        "meta_arg_of_pericenter": 206.4939,
        "meta_mean_anomaly": 151.9108,
        "meta_ephemeris_type": 0,
        "meta_classification_type": "U",
        "meta_norad_cat_id": 34472,
        "meta_element_set_no": 999,
        "meta_rev_at_epoch": 83893,
        "meta_bstar": 0.0007183883,
        "meta_mean_motion_dot": 9.05e-06,
        "meta_mean_motion_ddot": 0,
        "tle_line1": "1 34472U 93036TR  25358.89437116  .00000905  00000+0  71839-3 0  9997",
        "tle_line2": "2 34472  74.0848  78.1549 0327671 206.4939 151.9108 13.70352340838930"
      },
      "geometry": {
        "type": "Point",
        "coordinates": [
          -109.17200484674596,
          22.160126005501525
        ]
      }
    },
    {
      "type": "Feature",
      "properties": {
        "norad_id": 34474,
        "name": "COSMOS 2251 DEB",
        "group": "cosmos-2251-debris",
        "lat": 50.536651812557935,
        "lon": 103.97769150726867,
        "alt_km": 916.5902755758307,
        "timestamp": "2025-12-25T07:00:34.442682+00:00",
        "meta_object_name": "COSMOS 2251 DEB",
        "meta_object_id": "1993-036TT",
        "meta_epoch": "2025-12-24T22:11:12.653664",
        "meta_mean_motion": 14.06513391,
        "meta_eccentricity": 0.01993823,
        "meta_inclination": 74.0789,
        "meta_ra_of_asc_node": 304.9056,
        "meta_arg_of_pericenter": 15.8431,
        "meta_mean_anomaly": 47.8891,
        "meta_ephemeris_type": 0,
        "meta_classification_type": "U",
        "meta_norad_cat_id": 34474,
        "meta_element_set_no": 999,
        "meta_rev_at_epoch": 85680,
        "meta_bstar": 0.0025056911,
        "meta_mean_motion_dot": 4.944e-05,
        "meta_mean_motion_ddot": 0,
        "tle_line1": "1 34474U 93036TT  25358.92445201  .00004944  00000+0  25057-2 0  9994",
        "tle_line2": "2 34474  74.0789 304.9056 0199382  15.8431  47.8891 14.06513391856807"
      },
      "geometry": {
        "type": "Point",
        "coordinates": [
          103.97769150726867,
          50.536651812557935
        ]
      }
    },
    {
      "type": "Feature",
      "properties": {
        "norad_id": 34476,
        "name": "COSMOS 2251 DEB",
        "group": "cosmos-2251-debris",
        "lat": 69.6455029659062,
        "lon": 111.97641507241131,
        "alt_km": 1168.6930178985485,
        "timestamp": "2025-12-25T07:00:34.442692+00:00",
        "meta_object_name": "COSMOS 2251 DEB",
        "meta_object_id": "1993-036TV",
        "meta_epoch": "2025-12-23T04:15:02.567520",
        "meta_mean_motion": 13.82132648,
        "meta_eccentricity": 0.03222242,
        "meta_inclination": 74.0063,
        "meta_ra_of_asc_node": 64.9101,
        "meta_arg_of_pericenter": 282.3311,
        "meta_mean_anomaly": 74.192,
        "meta_ephemeris_type": 0,
        "meta_classification_type": "U",
        "meta_norad_cat_id": 34476,
        "meta_element_set_no": 999,
        "meta_rev_at_epoch": 83782,
        "meta_bstar": 0.0037798313,
        "meta_mean_motion_dot": 6.03e-05,
        "meta_mean_motion_ddot": 0,
        "tle_line1": "1 34476U 93036TV  25357.17711305  .00006030  00000+0  37798-2 0  9996",
        "tle_line2": "2 34476  74.0063  64.9101 0322224 282.3311  74.1920 13.82132648837821"
      },
      "geometry": {
        "type": "Point",
        "coordinates": [
          111.97641507241131,
          69.6455029659062
        ]
      }
    },
    {
      "type": "Feature",
      "properties": {
        "norad_id": 34477,
        "name": "COSMOS 2251 DEB",
        "group": "cosmos-2251-debris",
        "lat": 66.5521027851581,
        "lon": -175.90934635226327,
        "alt_km": 725.5253162154049,
        "timestamp": "2025-12-25T07:00:34.442702+00:00",
        "meta_object_name": "COSMOS 2251 DEB",
        "meta_object_id": "1993-036TW",
        "meta_epoch": "2025-12-24T04:24:55.204992",
        "meta_mean_motion": 14.56939692,
        "meta_eccentricity": 0.00767127,
        "meta_inclination": 73.9783,
        "meta_ra_of_asc_node": 47.6919,
        "meta_arg_of_pericenter": 232.7164,
        "meta_mean_anomaly": 185.761,
        "meta_ephemeris_type": 0,
        "meta_classification_type": "U",
        "meta_norad_cat_id": 34477,
        "meta_element_set_no": 999,
        "meta_rev_at_epoch": 88792,
        "meta_bstar": 0.00077360416,
        "meta_mean_motion_dot": 3.586e-05,
        "meta_mean_motion_ddot": 0,
        "tle_line1": "1 34477U 93036TW  25358.18397228  .00003586  00000+0  77360-3 0  9996",
        "tle_line2": "2 34477  73.9783  47.6919 0076712 232.7164 185.7610 14.56939692887924"
      },
      "geometry": {
        "type": "Point",
        "coordinates": [
          -175.90934635226327,
          66.5521027851581
        ]
      }
    },
    {
      "type": "Feature",
      "properties": {
        "norad_id": 34478,
        "name": "COSMOS 2251 DEB",
        "group": "cosmos-2251-debris",
        "lat": 23.309460251111037,
        "lon": 153.95801831776464,
        "alt_km": 520.9942781320815,
        "timestamp": "2025-12-25T07:00:34.442713+00:00",
        "meta_object_name": "COSMOS 2251 DEB",
        "meta_object_id": "1993-036TX",
        "meta_epoch": "2025-12-24T03:49:37.459776",
        "meta_mean_motion": 15.08965156,
        "meta_eccentricity": 0.00336726,
        "meta_inclination": 74.0409,
        "meta_ra_of_asc_node": 343.3732,
        "meta_arg_of_pericenter": 200.5803,
        "meta_mean_anomaly": 285.0425,
        "meta_ephemeris_type": 0,
        "meta_classification_type": "U",
        "meta_norad_cat_id": 34478,
        "meta_element_set_no": 999,
        "meta_rev_at_epoch": 89145,
        "meta_bstar": 0.0034676671,
        "meta_mean_motion_dot": 0.00055898,
        "meta_mean_motion_ddot": 0,
        "tle_line1": "1 34478U 93036TX  25358.15946134  .00055898  00000+0  34677-2 0  9996",
        "tle_line2": "2 34478  74.0409 343.3732 0033672 200.5803 285.0425 15.08965156891455"
      },
      "geometry": {
        "type": "Point",
        "coordinates": [
          153.95801831776464,
          23.309460251111037
        ]
      }
    },
    {
      "type": "Feature",
      "properties": {
        "norad_id": 34481,
        "name": "COSMOS 2251 DEB",
        "group": "cosmos-2251-debris",
        "lat": -69.20767911570388,
        "lon": -18.71535217024092,
        "alt_km": 781.7950567674143,
        "timestamp": "2025-12-25T07:00:34.442723+00:00",
        "meta_object_name": "COSMOS 2251 DEB",
        "meta_object_id": "1993-036UA",
        "meta_epoch": "2025-12-24T20:28:38.519904",
        "meta_mean_motion": 14.32592151,
        "meta_eccentricity": 0.00702416,
        "meta_inclination": 73.9789,
        "meta_ra_of_asc_node": 31.2629,
        "meta_arg_of_pericenter": 203.3312,
        "meta_mean_anomaly": 336.9731,
        "meta_ephemeris_type": 0,
        "meta_classification_type": "U",
        "meta_norad_cat_id": 34481,
        "meta_element_set_no": 999,
        "meta_rev_at_epoch": 87622,
        "meta_bstar": 0.00057943976,
        "meta_mean_motion_dot": 1.591e-05,
        "meta_mean_motion_ddot": 0,
        "tle_line1": "1 34481U 93036UA  25358.85322361  .00001591  00000+0  57944-3 0  9991",
        "tle_line2": "2 34481  73.9789  31.2629 0070241 203.3312 336.9731 14.32592151876226"
      },
      "geometry": {
        "type": "Point",
        "coordinates": [
          -18.71535217024092,
          -69.20767911570388
        ]
      }
    }
  ]
}